STARLINK-1759           
1 46340U 20062R   22293.08798878  .00000543  00000+0  55346-4 0  9998
2 46340  53.0542 167.9571 0001486 103.0789 257.0366 15.06393720118107
STARLINK-1760           
1 46341U 20062S   22293.42525459 -.00001216  00000+0 -62721-4 0  9995
2 46341  53.0540 146.4401 0001518  88.3683 271.7480 15.06399591118443
STARLINK-1762           
1 46342U 20062T   22292.94054863  .00000951  00000+0  82783-4 0  9991
2 46342  53.0560 168.6096 0001440  93.4352 266.6801 15.06389686118080
STARLINK-1764           
1 46343U 20062U   22292.86867830  .00002251  00000+0  16993-3 0  9993
2 46343  53.0530 148.9281 0001314 109.1111 251.0020 15.06403321118357
STARLINK-1765           
1 46344U 20062V   22293.41787511 -.00000433  00000+0 -10145-4 0  9999
2 46344  53.0548 146.4737 0001282 122.1022 238.0092 15.06402019118410
STARLINK-1767           
1 46345U 20062W   22293.08704531  .00000824  00000+0  74237-4 0  9998
2 46345  53.0552 167.9335 0001363 104.0244 256.0897 15.06388711118104
STARLINK-1546           
1 46346U 20062X   22293.15496063  .00006489  00000+0  20382-3 0  9999
2 46346  53.0547 346.6869 0002765  19.1472 340.9632 15.34273287120670
STARLINK-1547           
1 46347U 20062Y   22292.64797785  .00001337  00000+0  10862-3 0  9997
2 46347  53.0546 124.9175 0001218 106.4122 253.7001 15.06391470118471
STARLINK-1553           
1 46348U 20062Z   22293.02347753 -.00000065  00000+0  14517-4 0  9997
2 46348  53.0542 148.2255 0001470 127.8697 232.2425 15.06402203118378
STARLINK-1575           
1 46349U 20062AA  22292.55582925  .00000916  00000+0  80392-4 0  9995
2 46349  53.0540 125.3286 0001454  94.2900 265.8255 15.06399510118653
STARLINK-1617           
1 46350U 20062AB  22292.91843409  .00000218  00000+0  33528-4 0  9998
2 46350  53.0537 168.7088 0001635 118.4303 241.6851 15.06390825117900
STARLINK-1646           
1 46351U 20062AC  22292.92302065  .00000984  00000+0  84930-4 0  9991
2 46351  53.0536 148.6593 0001258 109.8638 250.2486 15.06401381118365
STARLINK-1653           
1 46352U 20062AD  22293.03822410  .00000826  00000+0  74379-4 0  9997
2 46352  53.0553 148.1696 0001358 111.1358 248.9776 15.06395990118386
STARLINK-1656           
1 46353U 20062AE  22293.43445919  .00001544  00000+0  12248-3 0  9991
2 46353  53.0537 166.3927 0001274 103.6406 256.4725 15.06403155118151
STARLINK-1657           
1 46354U 20062AF  22293.02533039  .00002849  00000+0  21019-3 0  9993
2 46354  53.0551 168.2181 0001342  99.7278 260.3862 15.06384297118093
STARLINK-1661           
1 46355U 20062AG  22292.73413361  .00000299  00000+0  38958-4 0  9994
2 46355  53.0535 169.5397 0001372 110.2317 249.8820 15.06403929117870
STARLINK-1665           
1 46356U 20062AH  22292.87693760  .00000848  00000+0  75808-4 0  9998
2 46356  53.0543 168.8859 0001310 119.3663 240.7457 15.06397947117891
STARLINK-1666           
1 46357U 20062AJ  22292.80969969  .00001097  00000+0  92523-4 0  9999
2 46357  53.0556 149.1909 0001502 111.7989 248.3160 15.06390263118344
STARLINK-1690           
1 46358U 20062AK  22293.45288934  .00001689  00000+0  13226-3 0  9997
2 46358  53.0542 166.3085 0001264  99.8708 260.2424 15.06393740118165
STARLINK-1707           
1 46359U 20062AL  22292.83595753  .00001830  00000+0  14172-3 0  9998
2 46359  53.0534 124.0809 0001590 104.5199 255.5966 15.06404677118511
STARLINK-1713           
1 46360U 20062AM  22293.05710603  .00000644  00000+0  62094-4 0  9997
2 46360  53.0531 123.0866 0001433  80.4106 279.7045 15.06400203118739
STARLINK-1722           
1 46361U 20062AN  22292.89398718  .00003019  00000+0  22142-3 0  9996
2 46361  53.0543 123.7876 0001608 119.0905 241.0245 15.06406973118690
STARLINK-1726           
1 46362U 20062AP  22293.00550594 -.00000416  00000+0 -90471-5 0  9995
2 46362  53.0541 123.3170 0001442  97.3395 262.7758 15.06396548118728
STARLINK-1739           
1 46363U 20062AQ  22292.86450068  .00000423  00000+0  47272-4 0  9990
2 46363  53.0548 123.9223 0001453 109.3457 250.7689 15.06390135118676
STARLINK-1763           
1 46364U 20062AR  22292.86735226  .00000833  00000+0  74803-4 0  9998
2 46364  53.0547 104.4252 0001263 118.4849 241.6268 15.06394634118970
STARLINK-1550           
1 46365U 20062AS  22292.90968164  .00001612  00000+0  12710-3 0  9997
2 46365  53.0543 123.7385 0001364 105.4415 254.6724 15.06391763118684
STARLINK-1651           
1 46366U 20062AT  22293.36304742  .00001072  00000+0  90881-4 0  9991
2 46366  53.0534 121.7099 0001557 114.7178 245.3973 15.06402144118777
STARLINK-1658           
1 46368U 20062AV  22292.69817344  .00000099  00000+0  25572-4 0  9998
2 46368  53.0539 149.6691 0001311 106.5777 253.5356 15.06394835118158
STARLINK-1670           
1 46370U 20062AX  22293.06034929  .00000484  00000+0  51378-4 0  9994
2 46370  53.0540 148.0635 0001514  93.6639 266.4523 15.06396405118381
STARLINK-1688           
1 46371U 20062AY  22293.31836260  .00007102  00000+0  49496-3 0  9992
2 46371  53.0546 146.9161 0001548 113.7187 246.3964 15.06416111118426
STARLINK-1689           
1 46372U 20062AZ  22293.06217918  .00000864  00000+0  76873-4 0  9996
2 46372  53.0548 168.0500 0001437 104.1092 256.0057 15.06407319118103
STARLINK-1711           
1 46374U 20062BB  22292.81060674 -.00000988  00000+0 -47454-4 0  9997
2 46374  53.0540  99.1851 0001549 118.4330 241.6815 15.06403460118865
STARLINK-1724           
1 46375U 20062BC  22293.48836796  .00004099  00000+0  29386-3 0  9996
2 46375  53.0533 121.1305 0001158  93.0342 267.0780 15.06408843118790
STARLINK-1742           
1 46376U 20062BD  22293.23772744  .00001135  00000+0  95082-4 0  9997
2 46376  53.0538 122.2726 0001264 123.2411 236.8699 15.06398460118758
STARLINK-1758           
1 46380U 20062BH  22293.40313606  .00001663  00000+0  13048-3 0  9996
2 46380  53.0531 146.5377 0001435  97.2337 262.8815 15.06399637118435
STARLINK-1769           
1 46382U 20062BK  22292.65534518  .00001780  00000+0  13834-3 0  9994
2 46382  53.0542 124.8967 0001434  80.1142 280.0008 15.06401860118491
STARLINK-1770           
1 46383U 20062BL  22293.04006531  .00000824  00000+0  74242-4 0  9997
2 46383  53.0534 168.1684 0001372  82.2403 277.8742 15.06392983118094
STARLINK-1771           
1 46384U 20062BM  22292.97740085  .00002675  00000+0  19838-3 0  9993
2 46384  53.0531 168.4339 0001424 112.2855 247.8285 15.06399254118081
GAOFEN 11-2             
1 46396U 20064A   22293.56736868  .00008065  00000+0  34271-3 0  9995
2 46396  97.3928  48.4311 0003094 164.3529 326.0652 15.23304896118178
JILIN-01 GAOFEN 3B      
1 46454U 20065A   22293.58796024  .00005886  00000+0  34108-3 0  9990
2 46454  97.4318 342.7801 0014580 162.3377 355.4891 15.12478337115541
JILIN-01 GAOFEN 3C      
1 46455U 20065B   22293.57501332  .00006234  00000+0  36107-3 0  9995
2 46455  97.4271 342.3414 0013035 176.1033 326.7235 15.12492772115544
JILIN-01 GAOFEN 3D      
1 46456U 20065C   22293.56408035  .00006693  00000+0  38742-3 0  9997
2 46456  97.4368 343.2962 0012478 176.1051 322.2267 15.12493483115546
JILIN-01 GAOFEN 3E      
1 46457U 20065D   22293.57686846  .00005909  00000+0  34332-3 0  9997
2 46457  97.4325 342.8595 0012313 182.2581 320.5814 15.12410379115543
JILIN-01 GAOFEN 3F      
1 46458U 20065E   22293.55475503  .00006543  00000+0  37964-3 0  9991
2 46458  97.4260 342.1924 0013388 171.9375 325.9156 15.12404044115540
JILIN-01 GAOFEN 3G      
1 46459U 20065F   22293.55256800  .00006894  00000+0  39869-3 0  9994
2 46459  97.4383 343.4561 0014583 175.2598 318.9267 15.12489792115548
JILIN-01 GAOFEN 3H      
1 46460U 20065G   22293.54593594  .00006515  00000+0  37778-3 0  9996
2 46460  97.4270 342.3408 0013606 173.6409 322.5338 15.12428780115541
JILIN-01 GAOFEN 3I      
1 46461U 20065H   22293.53661368  .00006276  00000+0  36433-3 0  9992
2 46461  97.4365 343.2913 0014118 167.3119 328.9242 15.12396901115548
JILIN-01 GAOFEN 3J      
1 46462U 20065J   22293.52994405  .00006097  00000+0  35390-3 0  9995
2 46462  97.4321 342.8184 0012957 171.3526 325.2996 15.12425059115545
HAIYANG-2C              
1 46469U 20066A   22293.30299034 -.00000079  00000+0  18653-5 0  9995
2 46469  65.9972 301.3451 0008017 233.2490 126.7803 13.83375711105007
HJ-2A                   
1 46478U 20067A   22293.52492675  .00000961  00000+0  14523-3 0  9995
2 46478  97.9857  13.9766 0000374  97.5275 262.5963 14.76507706111163
HJ-2B                   
1 46479U 20067B   22293.49171602  .00001008  00000+0  15187-3 0  9996
2 46479  97.9884  14.2499 0001265  80.8969 279.2373 14.76523162111160
GONETS-M 17             
1 46486U 20068A   22293.03403549  .00000024  00000+0  10000-3 0  9999
2 46486  82.4923  98.6975 0023916  69.6110 290.7538 12.42879544 93367
GONETS-M 18             
1 46487U 20068B   22293.40643474  .00000024  00000+0  10000-3 0  9994
2 46487  82.4876  98.1037 0020699  67.0609 293.2657 12.42901975 93408
GONETS-M 19             
1 46488U 20068C   22293.45945152  .00000024  00000+0  10000-3 0  9998
2 46488  82.4911  98.2303 0014808  81.3428 278.9331 12.42870933 93429
MEZNSAT                 
1 46489U 20068D   22292.72945779  .00008649  00000+0  57883-3 0  9994
2 46489  97.7372 235.0216 0017098 209.0581 236.8993 15.07057228112952
YARILO 1                
1 46490U 20068E   22292.40502607  .00007985  00000+0  52991-3 0  9997
2 46490  97.7311 234.7900 0016594 218.9671 141.0228 15.07405695112911
YARILO 2                
1 46491U 20068F   22292.53513547  .00008537  00000+0  57012-3 0  9990
2 46491  97.7362 234.7945 0014676 220.7141 139.2853 15.07175503112925
LACUNASAT-3             
1 46492U 20068G   22292.48495872  .00005733  00000+0  38130-3 0  9990
2 46492  97.7372 234.8493 0015886 211.2589 148.7695 15.07460495112905
DEKART                  
1 46493U 20068H   22292.91319607  .00005229  00000+0  36615-3 0  9996
2 46493  97.7364 234.6599 0016735 216.6356 143.3726 15.05572060112925
